43257,IRIDIUM 150,2018,100.4,860.0,+,86.4,Active,1,LEO,USA,USA,Commercial/Government,Communications,Falcon,1 43257U 18030J   24302.90637946  .00001107  00000+0  38803-3 0  9991,2 43257  86.4028 179.6960 0002331  77.3041 282.8416 14.34222444344710,14.34222444,0.0002331,LEO
43258,IRIDIUM 143,2018,100.4,860.0,+,86.4,Active,1,LEO,USA,USA,Commercial/Government,Communications,Falcon,1 43258U 18030K   24303.09665516  .00000886  00000+0  30939-3 0  9992,2 43258  86.4030 179.6861 0002451  73.7654 286.3811 14.34223187344686,14.34223187,0.0002451,LEO
43478,IRIDIUM 161,2018,99.77,860.0,+,86.45,Active,1,LEO,USA,USA,Commercial/Government,Communications,Falcon,1 43478U 18047C   24302.85443414  .00001456  00000+0  42669-3 0  9995,2 43478  86.4497 337.6946 0002173  95.8961 264.2487 14.43292761339125,14.43292761,0.0002173,LEO
43479,IRIDIUM 152,2018,100.4,860.0,+,86.4,Active,1,LEO,USA,USA,Commercial/Government,Communications,Falcon,1 43479U 18047D   24302.86006798  .00000644  00000+0  22289-3 0  9991,2 43479  86.3974 337.5517 0002255  96.3099 263.8354 14.34214405337010,14.34214405,0.0002255,LEO
43480,IRIDIUM 147,2018,100.4,860.0,+,86.4,Active,1,LEO,USA,USA,Commercial/Government,Communications,Falcon,1 43480U 18047E   24303.14548671  .00000509  00000+0  17483-3 0  9996,2 43480  86.3974 337.4277 0001911 101.0981 259.0429 14.34219719337053,14.34219719,0.0001911,LEO
43481,IRIDIUM 110,2018,100.4,860.0,+,86.4,Active,1,LEO,USA,USA,Commercial/Government,Communications,Falcon,1 43481U 18047F   24303.50066835  .00001090  00000+0  38212-3 0  9993,2 43481  86.3973 337.3544 0002325 107.0446 253.1005 14.34206897337093,14.34206897,0.0002325,LEO
43482,IRIDIUM 162,2018,99.77,860.0,+,86.45,Active,1,LEO,USA,USA,Commercial/Government,Communications,Falcon,1 43482U 18047G   24303.33346057  .00001345  00000+0  39390-3 0  9993,2 43482  86.4496 337.3927 0002123 101.6452 258.4987 14.43289174339181,14.43289174,0.0002123,LEO
43569,IRIDIUM 160,2018,100.4,860.0,+,86.39,Active,1,LEO,USA,USA,Commercial/Government,Communications,Falcon,1 43569U 18061A   24303.44650618 -.00000040  00000+0 -21302-4 0  9996,2 43569  86.3922 305.7429 0001892  93.7066 266.4346 14.34216047327982,14.34216047,0.0001892,LEO
